[{"OBJECT_NAME":"STARLINK-31481","OBJECT_ID":"2024-074H","EPOCH":"2026-03-09T03:04:40.663488","MEAN_MOTION":15.27577203,"ECCENTRICITY":0.00012118,"INCLINATION":43.004,"RA_OF_ASC_NODE":346.2485,"ARG_OF_PERICENTER":247.3805,"MEAN_ANOMALY":112.6919,"EPHEMERIS_TYPE":0,"CLASSIFICATION_TYPE":"U","NORAD_CAT_ID":59541,"ELEMENT_SET_NO":999,"REV_AT_EPOCH":10593,"BSTAR":-8.6249698e-5,"MEAN_MOTION_DOT":-2.634e-5,"MEAN_MOTION_DDOT":0},{"OBJECT_NAME":"FREGAT DEB","OBJECT_ID":"2011-037HH","EPOCH":"2026-03-09T06:53:43.897632","MEAN_MOTION":12.15035422,"ECCENTRICITY":0.16047027,"INCLINATION":51.4002,"RA_OF_ASC_NODE":33.8697,"ARG_OF_PERICENTER":73.0401,"MEAN_ANOMALY":303.9622,"EPHEMERIS_TYPE":0,"CLASSIFICATION_TYPE":"U","NORAD_CAT_ID":46006,"ELEMENT_SET_NO":999,"REV_AT_EPOCH":23867,"BSTAR":0.0014568671,"MEAN_MOTION_DOT":0.00024531,"MEAN_MOTION_DDOT":0}]
